[{"OBJECT_NAME":"FREGAT R/B","OBJECT_ID":"2017-027B","EPOCH":"2026-03-14T08:40:40.017792","MEAN_MOTION":2.01924447,"ECCENTRICITY":0.71276126,"INCLINATION":62.5016,"RA_OF_ASC_NODE":244.9397,"ARG_OF_PERICENTER":266.9645,"MEAN_ANOMALY":16.9458,"EPHEMERIS_TYPE":0,"CLASSIFICATION_TYPE":"U","NORAD_CAT_ID":42720,"ELEMENT_SET_NO":999,"REV_AT_EPOCH":6491,"BSTAR":0.0050935412,"MEAN_MOTION_DOT":-9.62e-6,"MEAN_MOTION_DDOT":0},{"OBJECT_NAME":"QZS-2 (MICHIBIKI-2)","OBJECT_ID":"2017-028A","EPOCH":"2026-04-05T06:31:36.480000","MEAN_MOTION":1.00253447,"ECCENTRICITY":0.0742095,"INCLINATION":39.5436,"RA_OF_ASC_NODE":244.2157,"ARG_OF_PERICENTER":270.6147,"MEAN_ANOMALY":276.4746,"EPHEMERIS_TYPE":0,"CLASSIFICATION_TYPE":"U","NORAD_CAT_ID":42738,"ELEMENT_SET_NO":999,"REV_AT_EPOCH":689,"BSTAR":0,"MEAN_MOTION_DOT":-2.03e-6,"MEAN_MOTION_DDOT":0},{"OBJECT_NAME":"VIASAT-2","OBJECT_ID":"2017-029A","EPOCH":"2026-04-05T12:24:49.384800","MEAN_MOTION":1.00271835,"ECCENTRICITY":4.754e-5,"INCLINATION":0.0195,"RA_OF_ASC_NODE":258.5085,"ARG_OF_PERICENTER":139.1488,"MEAN_ANOMALY":272.4575,"EPHEMERIS_TYPE":0,"CLASSIFICATION_TYPE":"U","NORAD_CAT_ID":42740,"ELEMENT_SET_NO":999,"REV_AT_EPOCH":3247,"BSTAR":0,"MEAN_MOTION_DOT":-2.64e-6,"MEAN_MOTION_DDOT":0},{"OBJECT_NAME":"EUTELSAT 172B","OBJECT_ID":"2017-029B","EPOCH":"2026-04-05T13:10:38.867808","MEAN_MOTION":1.00273529,"ECCENTRICITY":1.798e-5,"INCLINATION":0.0173,"RA_OF_ASC_NODE":170.4613,"ARG_OF_PERICENTER":313.6058,"MEAN_ANOMALY":79.4496,"EPHEMERIS_TYPE":0,"CLASSIFICATION_TYPE":"U","NORAD_CAT_ID":42741,"ELEMENT_SET_NO":999,"REV_AT_EPOCH":3301,"BSTAR":0,"MEAN_MOTION_DOT":-4.0e-8,"MEAN_MOTION_DDOT":0},{"OBJECT_NAME":"GSAT-19","OBJECT_ID":"2017-031A","EPOCH":"2026-04-05T12:58:23.665152","MEAN_MOTION":1.00271444,"ECCENTRICITY":0.00055086,"INCLINATION":0.0962,"RA_OF_ASC_NODE":84.8128,"ARG_OF_PERICENTER":322.8842,"MEAN_ANOMALY":28.5705,"EPHEMERIS_TYPE":0,"CLASSIFICATION_TYPE":"U","NORAD_CAT_ID":42747,"ELEMENT_SET_NO":999,"REV_AT_EPOCH":3241,"BSTAR":0,"MEAN_MOTION_DOT":1.27e-6,"MEAN_MOTION_DDOT":0},{"OBJECT_NAME":"ECHOSTAR 21","OBJECT_ID":"2017-032A","EPOCH":"2026-04-05T08:04:38.574048","MEAN_MOTION":1.00274274,"ECCENTRICITY":0.00025112,"INCLINATION":1.7845,"RA_OF_ASC_NODE":350.9119,"ARG_OF_PERICENTER":22.057,"MEAN_ANOMALY":312.0896,"EPHEMERIS_TYPE":0,"CLASSIFICATION_TYPE":"U","NORAD_CAT_ID":42749,"ELEMENT_SET_NO":999,"REV_AT_EPOCH":3236,"BSTAR":0,"MEAN_MOTION_DOT":6.6e-7,"MEAN_MOTION_DDOT":0},{"OBJECT_NAME":"ZHONGXING-9A","OBJECT_ID":"2017-035A","EPOCH":"2026-04-05T14:45:23.002848","MEAN_MOTION":0.99778672,"ECCENTRICITY":0.0006097,"INCLINATION":4.7985,"RA_OF_ASC_NODE":76.1114,"ARG_OF_PERICENTER":294.5342,"MEAN_ANOMALY":103.0855,"EPHEMERIS_TYPE":0,"CLASSIFICATION_TYPE":"U","NORAD_CAT_ID":42763,"ELEMENT_SET_NO":999,"REV_AT_EPOCH":3293,"BSTAR":0,"MEAN_MOTION_DOT":1.16e-6,"MEAN_MOTION_DDOT":0},{"OBJECT_NAME":"BULGARIASAT-1","OBJECT_ID":"2017-038A","EPOCH":"2026-04-05T05:28:38.784288","MEAN_MOTION":1.00274567,"ECCENTRICITY":0.0003408,"INCLINATION":0.0552,"RA_OF_ASC_NODE":79.8892,"ARG_OF_PERICENTER":311.1245,"MEAN_ANOMALY":246.574,"EPHEMERIS_TYPE":0,"CLASSIFICATION_TYPE":"U","NORAD_CAT_ID":42801,"ELEMENT_SET_NO":999,"REV_AT_EPOCH":3211,"BSTAR":0,"MEAN_MOTION_DOT":1.3e-7,"MEAN_MOTION_DDOT":0},{"OBJECT_NAME":"HELLAS-SAT 3","OBJECT_ID":"2017-040A","EPOCH":"2026-04-05T12:55:53.905440","MEAN_MOTION":1.00270557,"ECCENTRICITY":0.00052902,"INCLINATION":0.0637,"RA_OF_ASC_NODE":36.3627,"ARG_OF_PERICENTER":345.2631,"MEAN_ANOMALY":45.1806,"EPHEMERIS_TYPE":0,"CLASSIFICATION_TYPE":"U","NORAD_CAT_ID":42814,"ELEMENT_SET_NO":999,"REV_AT_EPOCH":3207,"BSTAR":0,"MEAN_MOTION_DOT":1.54e-6,"MEAN_MOTION_DDOT":0},{"OBJECT_NAME":"GSAT-17","OBJECT_ID":"2017-040B","EPOCH":"2026-04-05T15:13:22.342368","MEAN_MOTION":1.00273266,"ECCENTRICITY":0.00039981,"INCLINATION":0.0688,"RA_OF_ASC_NODE":75.556,"ARG_OF_PERICENTER":233.618,"MEAN_ANOMALY":206.5923,"EPHEMERIS_TYPE":0,"CLASSIFICATION_TYPE":"U","NORAD_CAT_ID":42815,"ELEMENT_SET_NO":999,"REV_AT_EPOCH":3206,"BSTAR":0,"MEAN_MOTION_DOT":-2.56e-6,"MEAN_MOTION_DDOT":0},{"OBJECT_NAME":"INTELSAT 35E (IS-35E)","OBJECT_ID":"2017-041A","EPOCH":"2026-04-05T05:44:11.028192","MEAN_MOTION":1.00272847,"ECCENTRICITY":0.00021328,"INCLINATION":0.0159,"RA_OF_ASC_NODE":217.4245,"ARG_OF_PERICENTER":159.2084,"MEAN_ANOMALY":228.4468,"EPHEMERIS_TYPE":0,"CLASSIFICATION_TYPE":"U","NORAD_CAT_ID":42818,"ELEMENT_SET_NO":999,"REV_AT_EPOCH":3208,"BSTAR":0,"MEAN_MOTION_DOT":-2.37e-6,"MEAN_MOTION_DDOT":0},{"OBJECT_NAME":"FALCON 9 R/B","OBJECT_ID":"2017-041B","EPOCH":"2026-04-01T06:25:59.457792","MEAN_MOTION":2.04503922,"ECCENTRICITY":0.74683504,"INCLINATION":25.3059,"RA_OF_ASC_NODE":205.6359,"ARG_OF_PERICENTER":34.3853,"MEAN_ANOMALY":356.31,"EPHEMERIS_TYPE":0,"CLASSIFICATION_TYPE":"U","NORAD_CAT_ID":42819,"ELEMENT_SET_NO":999,"REV_AT_EPOCH":6180,"BSTAR":0.00095539631,"MEAN_MOTION_DOT":2.112e-5,"MEAN_MOTION_DDOT":0},{"OBJECT_NAME":"COSMOS 2520","OBJECT_ID":"2017-046A","EPOCH":"2026-04-05T12:57:31.248864","MEAN_MOTION":1.00270664,"ECCENTRICITY":2.037e-5,"INCLINATION":0.0253,"RA_OF_ASC_NODE":123.5794,"ARG_OF_PERICENTER":4.3432,"MEAN_ANOMALY":305.3136,"EPHEMERIS_TYPE":0,"CLASSIFICATION_TYPE":"U","NORAD_CAT_ID":42907,"ELEMENT_SET_NO":999,"REV_AT_EPOCH":3166,"BSTAR":0,"MEAN_MOTION_DOT":1.38e-6,"MEAN_MOTION_DDOT":0},{"OBJECT_NAME":"BREEZE-M R/B","OBJECT_ID":"2017-046C","EPOCH":"2026-04-04T21:09:44.015616","MEAN_MOTION":0.90332506,"ECCENTRICITY":0.0756349,"INCLINATION":8.4923,"RA_OF_ASC_NODE":68.9479,"ARG_OF_PERICENTER":159.8667,"MEAN_ANOMALY":203.3649,"EPHEMERIS_TYPE":0,"CLASSIFICATION_TYPE":"U","NORAD_CAT_ID":42909,"ELEMENT_SET_NO":999,"REV_AT_EPOCH":2849,"BSTAR":0,"MEAN_MOTION_DOT":-1.59e-6,"MEAN_MOTION_DDOT":0},{"OBJECT_NAME":"TDRS 13","OBJECT_ID":"2017-047A","EPOCH":"2026-04-05T05:50:40.403616","MEAN_MOTION":1.00272481,"ECCENTRICITY":0.0012156,"INCLINATION":3.4359,"RA_OF_ASC_NODE":0.8798,"ARG_OF_PERICENTER":97.1842,"MEAN_ANOMALY":171.6757,"EPHEMERIS_TYPE":0,"CLASSIFICATION_TYPE":"U","NORAD_CAT_ID":42915,"ELEMENT_SET_NO":999,"REV_AT_EPOCH":3161,"BSTAR":0,"MEAN_MOTION_DOT":-9.8e-7,"MEAN_MOTION_DDOT":0},{"OBJECT_NAME":"QZS-3 (MICHIBIKI-3)","OBJECT_ID":"2017-048A","EPOCH":"2026-04-05T13:20:58.997760","MEAN_MOTION":1.00271047,"ECCENTRICITY":0.00021296,"INCLINATION":0.0647,"RA_OF_ASC_NODE":143.4164,"ARG_OF_PERICENTER":236.5566,"MEAN_ANOMALY":141.1643,"EPHEMERIS_TYPE":0,"CLASSIFICATION_TYPE":"U","NORAD_CAT_ID":42917,"ELEMENT_SET_NO":999,"REV_AT_EPOCH":3153,"BSTAR":0,"MEAN_MOTION_DOT":-3.46e-6,"MEAN_MOTION_DDOT":0},{"OBJECT_NAME":"AMAZONAS 5","OBJECT_ID":"2017-053A","EPOCH":"2026-04-05T12:27:19.145376","MEAN_MOTION":1.00269112,"ECCENTRICITY":0.0004765,"INCLINATION":0.0432,"RA_OF_ASC_NODE":310.4025,"ARG_OF_PERICENTER":40.6967,"MEAN_ANOMALY":328.5445,"EPHEMERIS_TYPE":0,"CLASSIFICATION_TYPE":"U","NORAD_CAT_ID":42934,"ELEMENT_SET_NO":999,"REV_AT_EPOCH":3131,"BSTAR":0,"MEAN_MOTION_DOT":-2.81e-6,"MEAN_MOTION_DDOT":0}]
